{"type": "FeatureCollection", "features": [ {"type": "Feature", "properties": {"norad_id": 66649, "name": "COSMOS 2599 (RODNIK-S 24)", "group": "last-30-days", "lat": -51.52461201594443, "lon": 114.73318911909753, "alt_km": 1504.8677811634288, "timestamp": "2025-12-14T18:52:54.242908+00:00", "meta": {"OBJECT_NAME": "COSMOS 2599 (RODNIK-S 24)", "OBJECT_ID": "2025-273C", "EPOCH": "2025-12-13T22:17:17.420640", "MEAN_MOTION": 12.41150946, "ECCENTRICITY": 0.00063149, "INCLINATION": 82.5045, "RA_OF_ASC_NODE": 285.73, "ARG_OF_PERICENTER": 275.8305, "MEAN_ANOMALY": 84.2054, "EPHEMERIS_TYPE": 0, "CLASSIFICATION_TYPE": "U", "NORAD_CAT_ID": 66649, "ELEMENT_SET_NO": 999, "REV_AT_EPOCH": 228, "BSTAR": 2.0870224e-05, "MEAN_MOTION_DOT": 1.3e-07, "MEAN_MOTION_DDOT": 0}, "tle": {"line1": "1 66649U 25273C   25347.92867385  .00000013  00000+0  20870-4 0  9993", "line2": "2 66649  82.5045 285.7300 0006314 275.8305  84.2054 12.41150946  2284"}}, "geometry": {"type": "Point", "coordinates": [114.73318911909753, -51.52461201594443]}}, {"type": "Feature", "properties": {"norad_id": 66650, "name": "BEE-1000", "group": "last-30-days", "lat": 61.58512073390195, "lon": 110.4938947531874, "alt_km": 591.0639270503652, "timestamp": "2025-12-14T18:52:54.242918+00:00", "meta": {"OBJECT_NAME": "BEE-1000", "OBJECT_ID": "2025-274A", "EPOCH": "2025-12-13T18:12:27.113760", "MEAN_MOTION": 14.91668016, "ECCENTRICITY": 0.00103834, "INCLINATION": 97.7388, "RA_OF_ASC_NODE": 274.9276, "ARG_OF_PERICENTER": 247.5162, "MEAN_ANOMALY": 112.4958, "EPHEMERIS_TYPE": 0, "CLASSIFICATION_TYPE": "U", "NORAD_CAT_ID": 66650, "ELEMENT_SET_NO": 999, "REV_AT_EPOCH": 255, "BSTAR": 0.00027707231, "MEAN_MOTION_DOT": 2.732e-05, "MEAN_MOTION_DDOT": 0}, "tle": {"line1": "1 66650U 25274A   25347.75864715  .00002732  00000+0  27707-3 0  9996", "line2": "2 66650  97.7388 274.9276 0010383 247.5162 112.4958 14.91668016  2550"}}, "geometry": {"type": "Point", "coordinates": [110.4938947531874, 61.58512073390195]}}, {"type": "Feature", "properties": {"norad_id": 66651, "name": "2025-274B", "group": "last-30-days", "lat": 55.767772684922974, "lon": 107.46606663924696, "alt_km": 590.5959117306511, "timestamp": "2025-12-14T18:52:54.242931+00:00", "meta": {"OBJECT_NAME": "2025-274B", "OBJECT_ID": "2025-274B", "EPOCH": "2025-12-13T18:10:58.776672", "MEAN_MOTION": 14.91811097, "ECCENTRICITY": 0.00105894, "INCLINATION": 97.7383, "RA_OF_ASC_NODE": 274.928, "ARG_OF_PERICENTER": 246.3969, "MEAN_ANOMALY": 113.6138, "EPHEMERIS_TYPE": 0, "CLASSIFICATION_TYPE": "U", "NORAD_CAT_ID": 66651, "ELEMENT_SET_NO": 999, "REV_AT_EPOCH": 255, "BSTAR": 0.00053262876, "MEAN_MOTION_DOT": 5.325e-05, "MEAN_MOTION_DDOT": 0}, "tle": {"line1": "1 66651U 25274B   25347.75762473  .00005325  00000+0  53263-3 0  9992", "line2": "2 66651  97.7383 274.9280 0010589 246.3969 113.6138 14.91811097  2553"}}, "geometry": {"type": "Point", "coordinates": [107.46606663924696, 55.767772684922974]}}, {"type": "Feature", "properties": {"norad_id": 66652, "name": "2025-274C", "group": "last-30-days", "lat": 47.52625029099558, "lon": 104.48529376946745, "alt_km": 591.1411088655259, "timestamp": "2025-12-14T18:52:54.242941+00:00", "meta": {"OBJECT_NAME": "2025-274C", "OBJECT_ID": "2025-274C", "EPOCH": "2025-12-13T21:21:58.453632", "MEAN_MOTION": 14.91909999, "ECCENTRICITY": 0.00102676, "INCLINATION": 97.7389, "RA_OF_ASC_NODE": 275.0626, "ARG_OF_PERICENTER": 252.9787, "MEAN_ANOMALY": 107.0307, "EPHEMERIS_TYPE": 0, "CLASSIFICATION_TYPE": "U", "NORAD_CAT_ID": 66652, "ELEMENT_SET_NO": 999, "REV_AT_EPOCH": 257, "BSTAR": 0.00041146127, "MEAN_MOTION_DOT": 4.11e-05, "MEAN_MOTION_DDOT": 0}, "tle": {"line1": "1 66652U 25274C   25347.89025988  .00004110  00000+0  41146-3 0  9999", "line2": "2 66652  97.7389 275.0626 0010267 252.9787 107.0307 14.91909999  2576"}}, "geometry": {"type": "Point", "coordinates": [104.48529376946745, 47.52625029099558]}}, {"type": "Feature", "properties": {"norad_id": 66653, "name": "2025-274D", "group": "last-30-days", "lat": 47.108580298764025, "lon": 104.35986193738225, "alt_km": 590.9287680002044, "timestamp": "2025-12-14T18:52:54.242951+00:00", "meta": {"OBJECT_NAME": "2025-274D", "OBJECT_ID": "2025-274D", "EPOCH": "2025-12-13T18:08:42.027072", "MEAN_MOTION": 14.91915478, "ECCENTRICITY": 0.00111335, "INCLINATION": 97.7386, "RA_OF_ASC_NODE": 274.9307, "ARG_OF_PERICENTER": 249.4426, "MEAN_ANOMALY": 110.5598, "EPHEMERIS_TYPE": 0, "CLASSIFICATION_TYPE": "U", "NORAD_CAT_ID": 66653, "ELEMENT_SET_NO": 999, "REV_AT_EPOCH": 255, "BSTAR": 0.00039328747, "MEAN_MOTION_DOT": 3.927e-05, "MEAN_MOTION_DDOT": 0}, "tle": {"line1": "1 66653U 25274D   25347.75604198  .00003927  00000+0  39329-3 0  9996", "line2": "2 66653  97.7386 274.9307 0011133 249.4426 110.5598 14.91915478  2550"}}, "geometry": {"type": "Point", "coordinates": [104.35986193738225, 47.108580298764025]}}, {"type": "Feature", "properties": {"norad_id": 66654, "name": "JACK E", "group": "last-30-days", "lat": 36.2962960825866, "lon": 101.67979980050988, "alt_km": 590.9980843772637, "timestamp": "2025-12-14T18:52:54.242962+00:00", "meta": {"OBJECT_NAME": "JACK E", "OBJECT_ID": "2025-274E", "EPOCH": "2025-12-12T17:57:23.787072", "MEAN_MOTION": 14.92083468, "ECCENTRICITY": 0.00117279, "INCLINATION": 97.7387, "RA_OF_ASC_NODE": 273.9456, "ARG_OF_PERICENTER": 255.0239, "MEAN_ANOMALY": 104.9682, "EPHEMERIS_TYPE": 0, "CLASSIFICATION_TYPE": "U", "NORAD_CAT_ID": 66654, "ELEMENT_SET_NO": 999, "REV_AT_EPOCH": 240, "BSTAR": 0.00049140414, "MEAN_MOTION_DOT": 4.943e-05, "MEAN_MOTION_DDOT": 0}, "tle": {"line1": "1 66654U 25274E   25346.74819198  .00004943  00000+0  49140-3 0  9994", "line2": "2 66654  97.7387 273.9456 0011727 255.0239 104.9682 14.92083468  2401"}}, "geometry": {"type": "Point", "coordinates": [101.67979980050988, 36.2962960825866]}}, {"type": "Feature", "properties": {"norad_id": 66655, "name": "2025-274F", "group": "last-30-days", "lat": 39.665297356081496, "lon": 102.41562242687095, "alt_km": 593.8937732338072, "timestamp": "2025-12-14T18:52:54.242973+00:00", "meta": {"OBJECT_NAME": "2025-274F", "OBJECT_ID": "2025-274F", "EPOCH": "2025-12-13T18:05:55.896288", "MEAN_MOTION": 14.91097105, "ECCENTRICITY": 0.00053388, "INCLINATION": 97.7326, "RA_OF_ASC_NODE": 274.9347, "ARG_OF_PERICENTER": 13.0674, "MEAN_ANOMALY": 347.0682, "EPHEMERIS_TYPE": 0, "CLASSIFICATION_TYPE": "U", "NORAD_CAT_ID": 66655, "ELEMENT_SET_NO": 999, "REV_AT_EPOCH": 255, "BSTAR": 2.2343263e-05, "MEAN_MOTION_DOT": 1.66e-06, "MEAN_MOTION_DDOT": 0}, "tle": {"line1": "1 66655U 25274F   25347.75411917  .00000166  00000+0  22343-4 0  9994", "line2": "2 66655  97.7326 274.9347 0005338  13.0674 347.0682 14.91097105  2559"}}, "geometry": {"type": "Point", "coordinates": [102.41562242687095, 39.665297356081496]}}, {"type": "Feature", "properties": {"norad_id": 66656, "name": "2025-274G", "group": "last-30-days", "lat": 24.41751349844505, "lon": 99.4920835548818, "alt_km": 590.8497362562784, "timestamp": "2025-12-14T18:52:54.242987+00:00", "meta": {"OBJECT_NAME": "2025-274G", "OBJECT_ID": "2025-274G", "EPOCH": "2025-12-13T18:02:53.410848", "MEAN_MOTION": 14.92283961, "ECCENTRICITY": 0.00122931, "INCLINATION": 97.7387, "RA_OF_ASC_NODE": 274.9361, "ARG_OF_PERICENTER": 253.1043, "MEAN_ANOMALY": 106.8828, "EPHEMERIS_TYPE": 0, "CLASSIFICATION_TYPE": "U", "NORAD_CAT_ID": 66656, "ELEMENT_SET_NO": 999, "REV_AT_EPOCH": 255, "BSTAR": 0.00045064417, "MEAN_MOTION_DOT": 4.551e-05, "MEAN_MOTION_DDOT": 0}, "tle": {"line1": "1 66656U 25274G   25347.75200707  .00004551  00000+0  45064-3 0  9994", "line2": "2 66656  97.7387 274.9361 0012293 253.1043 106.8828 14.92283961  2559"}}, "geometry": {"type": "Point", "coordinates": [99.4920835548818, 24.41751349844505]}}, {"type": "Feature", "properties": {"norad_id": 66657, "name": "SPIRONE", "group": "last-30-days", "lat": 12.850356361492423, "lon": 97.73448511807194, "alt_km": 592.9648217345766, "timestamp": "2025-12-14T18:52:54.242997+00:00", "meta": {"OBJECT_NAME": "SPIRONE", "OBJECT_ID": "2025-274H", "EPOCH": "2025-12-13T17:59:56.797152", "MEAN_MOTION": 14.92462797, "ECCENTRICITY": 0.00105891, "INCLINATION": 97.7382, "RA_OF_ASC_NODE": 274.9382, "ARG_OF_PERICENTER": 272.2353, "MEAN_ANOMALY": 87.7653, "EPHEMERIS_TYPE": 0, "CLASSIFICATION_TYPE": "U", "NORAD_CAT_ID": 66657, "ELEMENT_SET_NO": 999, "REV_AT_EPOCH": 255, "BSTAR": 0.00044599217, "MEAN_MOTION_DOT": 4.523e-05, "MEAN_MOTION_DDOT": 0}, "tle": {"line1": "1 66657U 25274H   25347.74996293  .00004523  00000+0  44599-3 0  9997", "line2": "2 66657  97.7382 274.9382 0010589 272.2353  87.7653 14.92462797  2559"}}, "geometry": {"type": "Point", "coordinates": [97.73448511807194, 12.850356361492423]}}, {"type": "Feature", "properties": {"norad_id": 66658, "name": "2025-274J", "group": "last-30-days", "lat": 1.6599507768953452, "lon": 96.187632280372, "alt_km": 592.9796110956095, "timestamp": "2025-12-14T18:52:54.243007+00:00", "meta": {"OBJECT_NAME": "2025-274J", "OBJECT_ID": "2025-274J", "EPOCH": "2025-12-13T21:10:09.067296", "MEAN_MOTION": 14.92633625, "ECCENTRICITY": 0.00112069, "INCLINATION": 97.7386, "RA_OF_ASC_NODE": 275.0726, "ARG_OF_PERICENTER": 274.5849, "MEAN_ANOMALY": 85.409, "EPHEMERIS_TYPE": 0, "CLASSIFICATION_TYPE": "U", "NORAD_CAT_ID": 66658, "ELEMENT_SET_NO": 999, "REV_AT_EPOCH": 257, "BSTAR": 0.00040041194, "MEAN_MOTION_DOT": 4.073e-05, "MEAN_MOTION_DDOT": 0}, "tle": {"line1": "1 66658U 25274J   25347.88204939  .00004073  00000+0  40041-3 0  9990", "line2": "2 66658  97.7386 275.0726 0011206 274.5849  85.4090 14.92633625  2572"}}, "geometry": {"type": "Point", "coordinates": [96.187632280372, 1.6599507768953452]}}]}